NORAD_CAT_ID,OBJECT_NAME,OBJECT_TYPE,EPOCH,MEAN_MOTION,ECCENTRICITY,INCLINATION,RA_OF_ASC_NODE,ARG_OF_PERICENTER,MEAN_ANOMALY,BSTAR,MEAN_MOTION_DOT,MEAN_MOTION_DDOT,TLE_LINE0,TLE_LINE1,TLE_LINE2,SEMIMAJOR_AXIS,PERIOD,APOGEE,PERIGEE,DECAYED
52667.0,STARLINK-4076,PAYLOAD,2024-05-07 13:55:06,15.08843498,0.0001318,53.2165,286.8481,98.5141,261.6,8.2536e-05,1.026e-05,0.0,0 STARLINK-4076,1 52667U 22053M   24128.57993991  .00001026  00000-0  82536-4 0  9994,2 52667  53.2165 286.8481 0001318  98.5141 261.6000 15.08843498109733,6917.87,95.437,540.646,538.823,0.0
52667.0,STARLINK-4076,PAYLOAD,2024-05-07 17:05:53,15.08840898,0.0001203,53.2186,286.2534,104.2246,255.888,1.1389e-06,-2.7e-06,0.0,0 STARLINK-4076,1 52667U 22053M   24128.71242025 -.00000270  00000-0  11389-5 0  9995,2 52667  53.2186 286.2534 0001203 104.2246 255.8880 15.08840898109757,6917.878,95.437,540.575,538.91,0.0
52667.0,STARLINK-4076,PAYLOAD,2024-05-08 13:45:53,15.08844829,0.0001143,53.2173,282.3867,115.5922,244.5189,8.8139e-05,1.115e-05,0.0,0 STARLINK-4076,1 52667U 22053M   24129.57353824  .00001115  00000-0  88139-4 0  9994,2 52667  53.2173 282.3867 0001143 115.5922 244.5189 15.08844829109887,6917.866,95.437,540.521,538.94,0.0
52667.0,STARLINK-4076,PAYLOAD,2024-05-08 16:56:39,15.08851009,0.0001047,53.2169,281.7939,87.1836,272.9276,7.9065e-05,9.71e-06,0.0,0 STARLINK-4076,1 52667U 22053M   24129.70601569  .00000971  00000-0  79065-4 0  9998,2 52667  53.2169 281.7939 0001047  87.1836 272.9276 15.08851009109909,6917.847,95.437,540.436,538.987,0.0
52667.0,STARLINK-4076,PAYLOAD,2024-05-09 15:12:04,15.08838525,0.0001041,53.2166,277.6295,104.5564,255.5544,0.00017196,2.45e-05,0.0,0 STARLINK-4076,1 52667U 22053M   24130.63338477  .00002450  00000-0  17196-3 0  9997,2 52667  53.2166 277.6295 0001041 104.5564 255.5544 15.08838525110041,6917.885,95.438,540.47,539.03,0.0
52667.0,STARLINK-4076,PAYLOAD,2024-05-09 16:47:27,15.08848566,0.000101,53.2167,277.3331,110.7759,249.3342,0.00031148,4.674e-05,0.0,0 STARLINK-4076,1 52667U 22053M   24130.69962101  .00004674  00000-0  31148-3 0  9993,2 52667  53.2167 277.3331 0001010 110.7759 249.3342 15.08848566110055,6917.854,95.437,540.418,539.021,0.0
52667.0,STARLINK-4076,PAYLOAD,2024-05-10 02:19:46,15.08845499,9.46e-05,53.2166,275.547,81.3536,278.7563,0.00028137,4.194e-05,0.0,0 STARLINK-4076,1 52667U 22053M   24131.09706350  .00004194  00000-0  28137-3 0  9991,2 52667  53.2166 275.5470 0000946  81.3536 278.7563 15.08845499110111,6917.864,95.437,540.383,539.074,0.0
52667.0,STARLINK-4076,PAYLOAD,2024-05-10 13:27:28,15.0883726,0.0001213,53.2181,273.4707,102.7543,257.3584,5.2186e-05,5.43e-06,0.0,0 STARLINK-4076,1 52667U 22053M   24131.56074593  .00000543  00000-0  52186-4 0  9996,2 52667  53.2181 273.4707 0001213 102.7543 257.3584 15.08837260110182,6917.889,95.438,540.593,538.915,0.0
52667.0,STARLINK-4076,PAYLOAD,2024-05-10 18:13:37,15.08845658,0.0001141,53.2171,272.5779,99.9849,260.1271,0.00018834,2.711e-05,0.0,0 STARLINK-4076,1 52667U 22053M   24131.75946344  .00002711  00000-0  18834-3 0  9999,2 52667  53.2171 272.5779 0001141  99.9849 260.1271 15.08845658110215,6917.863,95.437,540.517,538.939,0.0
52667.0,STARLINK-4076,PAYLOAD,2024-05-11 13:18:11,15.08903707,5.86e-05,53.2166,269.007,94.2399,265.866,0.00078579,0.00012262,0.0,0 STARLINK-4076,1 52667U 22053M   24132.55430030  .00012262  00000-0  78579-3 0  9992,2 52667  53.2166 269.0070 0000586  94.2399 265.8660 15.08903707110331,6917.686,95.434,539.956,539.145,0.0
52667.0,STARLINK-4076,PAYLOAD,2024-05-11 18:04:21,15.08866558,0.0001701,53.2172,268.1132,107.281,252.8368,-0.0011017,-0.00017792,0.0,0 STARLINK-4076,1 52667U 22053M   24132.75302920 -.00017792  00000-0 -11017-2 0  9998,2 52667  53.2172 268.1132 0001701 107.2810 252.8368 15.08866558110366,6917.799,95.436,540.841,538.487,0.0
52667.0,STARLINK-4076,PAYLOAD,2024-05-12 02:01:21,15.08739819,0.0004005,53.2179,266.6334,73.0059,287.1372,-0.0044487,-0.00070222,0.0,0 STARLINK-4076,1 52667U 22053M   24133.08427195 -.00070222  00000-0 -44487-2 0  9991,2 52667  53.2179 266.6334 0004005  73.0059 287.1372 15.08739819110416,6918.187,95.444,542.822,537.281,0.0
52667.0,STARLINK-4076,PAYLOAD,2024-05-12 13:09:04,15.08733725,0.0002011,53.2163,264.5501,45.7581,314.3576,-0.0016895,-0.00026999,0.0,0 STARLINK-4076,1 52667U 22053M   24133.54797207 -.00026999  00000-0 -16895-2 0  9990,2 52667  53.2163 264.5501 0002011  45.7581 314.3576 15.08733725110489,6918.205,95.444,541.461,538.679,0.0
52667.0,STARLINK-4076,PAYLOAD,2024-05-12 14:44:26,15.0880834,0.0001773,53.2163,264.2493,132.5461,227.5681,0.00099924,0.00015637,0.0,0 STARLINK-4076,1 52667U 22053M   24133.61419793  .00015637  00000-0  99924-3 0  9999,2 52667  53.2163 264.2493 0001773 132.5461 227.5681 15.08808340110491,6917.977,95.44,541.069,538.616,0.0
52667.0,STARLINK-4076,PAYLOAD,2024-05-13 14:35:15,15.08850905,0.000142,53.2159,259.7885,91.9935,268.122,0.00064591,0.0001001,0.0,0 STARLINK-4076,1 52667U 22053M   24134.60781263  .00010010  00000-0  64591-3 0  9995,2 52667  53.2159 259.7885 0001420  91.9935 268.1220 15.08850905110644,6917.847,95.437,540.694,538.73,0.0
52667.0,STARLINK-4076,PAYLOAD,2024-05-13 17:46:01,15.08853095,0.0001384,53.216,259.1935,93.7296,266.3854,0.00048752,7.482e-05,0.0,0 STARLINK-4076,1 52667U 22053M   24134.74029078  .00007482  00000-0  48752-3 0  9999,2 52667  53.2160 259.1935 0001384  93.7296 266.3854 15.08853095110663,6917.84,95.437,540.663,538.748,0.0
52667.0,STARLINK-4076,PAYLOAD,2024-05-14 14:26:00,15.08872563,0.0001296,53.2148,255.3281,84.5586,275.5554,0.00065581,0.00010174,0.0,0 STARLINK-4076,1 52667U 22053M   24135.60139668  .00010174  00000-0  65581-3 0  9993,2 52667  53.2148 255.3281 0001296  84.5586 275.5554 15.08872563110797,6917.781,95.435,540.542,538.749,0.0
52667.0,STARLINK-4076,PAYLOAD,2024-05-15 12:41:23,15.08869746,0.000125,53.2162,251.1637,80.9645,279.1489,0.00041901,6.392e-05,0.0,0 STARLINK-4076,1 52667U 22053M   24136.52874444  .00006392  00000-0  41901-3 0  9990,2 52667  53.2162 251.1637 0001250  80.9645 279.1489 15.08869746110930,6917.789,95.436,540.519,538.79,0.0
52667.0,STARLINK-4076,PAYLOAD,2024-05-15 14:16:46,15.08872309,0.0001287,53.216,250.8654,81.9385,278.1753,0.00047465,7.281e-05,0.0,0 STARLINK-4076,1 52667U 22053M   24136.59498298  .00007281  00000-0  47465-3 0  9995,2 52667  53.2160 250.8654 0001287  81.9385 278.1753 15.08872309110948,6917.782,95.436,540.537,538.756,0.0
52667.0,STARLINK-4076,PAYLOAD,2024-05-16 12:32:10,15.08848923,0.0001046,53.2163,246.7067,115.6684,244.4416,5.057e-05,5.17e-06,0.0,0 STARLINK-4076,1 52667U 22053M   24137.52234359  .00000517  00000-0  50570-4 0  9992,2 52667  53.2163 246.7067 0001046 115.6684 244.4416 15.08848923111086,6917.853,95.437,540.442,538.995,0.0
52667.0,STARLINK-4076,PAYLOAD,2024-05-16 14:07:33,15.08853454,0.0001122,53.2162,246.4072,92.7901,267.3219,0.00016949,2.412e-05,0.0,0 STARLINK-4076,1 52667U 22053M   24137.58858218  .00002412  00000-0  16949-3 0  9991,2 52667  53.2162 246.4072 0001122  92.7901 267.3219 15.08853454111091,6917.839,95.437,540.48,538.928,0.0
52667.0,STARLINK-4076,PAYLOAD,2024-05-16 17:18:19,15.08856589,0.0001113,53.216,245.8109,93.2824,266.8296,0.00061785,9.563e-05,0.0,0 STARLINK-4076,1 52667U 22053M   24137.72106213  .00009563  00000-0  61785-3 0  9990,2 52667  53.2160 245.8109 0001113  93.2824 266.8296 15.08856589111117,6917.83,95.437,540.465,538.925,0.0
52667.0,STARLINK-4076,PAYLOAD,2024-05-17 12:22:57,15.08842265,0.0002013,53.2184,242.2463,115.5487,244.5714,0.0002416,3.559e-05,0.0,0 STARLINK-4076,1 52667U 22053M   24138.51594474  .00003559  00000-0  24160-3 0  9993,2 52667  53.2184 242.2463 0002013 115.5487 244.5714 15.08842265111237,6917.873,95.437,541.131,538.346,0.0
52667.0,STARLINK-4076,PAYLOAD,2024-05-17 13:58:20,15.08851401,0.0001532,53.2164,241.9464,93.2522,266.8646,0.00062557,9.685e-05,0.0,0 STARLINK-4076,1 52667U 22053M   24138.58218210  .00009685  00000-0  62557-3 0  9999,2 52667  53.2164 241.9464 0001532  93.2522 266.8646 15.08851401111243,6917.846,95.437,540.77,538.651,0.0
52667.0,STARLINK-4076,PAYLOAD,2024-05-17 23:30:39,15.08849045,0.000133,53.2157,240.1618,78.3113,281.8028,0.00059213,9.151e-05,0.0,0 STARLINK-4076,1 52667U 22053M   24138.97962276  .00009151  00000-0  59213-3 0  9993,2 52667  53.2157 240.1618 0001330  78.3113 281.8028 15.08849045111302,6917.853,95.437,540.638,538.798,0.0
52667.0,STARLINK-4076,PAYLOAD,2024-05-18 13:49:07,15.08851692,0.0001518,53.2165,237.4875,77.3791,282.7371,0.00045084,6.897e-05,0.0,0 STARLINK-4076,1 52667U 22053M   24139.57578369  .00006897  00000-0  45084-3 0  9991,2 52667  53.2165 237.4875 0001518  77.3791 282.7371 15.08851692111395,6917.845,95.437,540.76,538.66,0.0
52667.0,STARLINK-4076,PAYLOAD,2024-05-18 23:21:27,15.08816386,0.0002466,53.2165,235.7004,85.3863,274.7411,-0.00030386,-5.118e-05,0.0,0 STARLINK-4076,1 52667U 22053M   24139.97323543 -.00005118  00000-0 -30386-3 0  9993,2 52667  53.2165 235.7004 0002466  85.3863 274.7411 15.08816386111456,6917.953,95.439,541.524,538.112,0.0
52667.0,STARLINK-4076,PAYLOAD,2024-05-19 13:39:56,15.08819414,0.0001357,53.2153,233.0247,80.1509,279.9636,-0.00011277,-2.081e-05,0.0,0 STARLINK-4076,1 52667U 22053M   24140.56940378 -.00002081  00000-0 -11277-3 0  9995,2 52667  53.2153 233.0247 0001357  80.1509 279.9636 15.08819414111542,6917.943,95.439,540.747,538.87,0.0
52667.0,STARLINK-4076,PAYLOAD,2024-05-19 15:15:19,15.08821567,0.0001293,53.2152,232.7271,91.7674,268.3466,-4.0234e-05,-9.28e-06,0.0,0 STARLINK-4076,1 52667U 22053M   24140.63564348 -.00000928  00000-0 -40234-4 0  9996,2 52667  53.2152 232.7271 0001293  91.7674 268.3466 15.08821567111550,6917.937,95.439,540.696,538.907,0.0
52667.0,STARLINK-4076,PAYLOAD,2024-05-20 11:55:20,15.08850122,0.0001778,53.2157,228.8603,82.8023,277.3172,0.0006227,9.639e-05,0.0,0 STARLINK-4076,1 52667U 22053M   24141.49676024  .00009639  00000-0  62270-3 0  9995,2 52667  53.2157 228.8603 0001778  82.8023 277.3172 15.08850122111684,6917.849,95.437,540.944,538.484,0.0
